NORAD_CAT_ID,OBJECT_NAME,OBJECT_TYPE,EPOCH,MEAN_MOTION,ECCENTRICITY,INCLINATION,RA_OF_ASC_NODE,ARG_OF_PERICENTER,MEAN_ANOMALY,BSTAR,MEAN_MOTION_DOT,MEAN_MOTION_DDOT,TLE_LINE0,TLE_LINE1,TLE_LINE2,SEMIMAJOR_AXIS,PERIOD,APOGEE,PERIGEE,DECAYED
51793.0,STARLINK-3633,PAYLOAD,2023-01-05 15:31:25,15.08831832,0.0003849,53.2161,152.2835,32.345,327.7777,-1.9769e-05,-6.04e-06,0.0,0 STARLINK-3633,1 51793U 22017AB  23005.64682541 -.00000604  00000-0 -19769-4 0  9991,2 51793  53.2161 152.2835 0003849  32.3450 327.7777 15.08831832 48991,6917.905,95.438,542.433,537.1080000000002,0.0
51793.0,STARLINK-3633,PAYLOAD,2023-01-06 12:11:25,15.08841888,0.0003481999999999,53.2168,148.412,43.1204,317.006,2.732e-05,1.46e-06,0.0,0 STARLINK-3633,1 51793U 22017AB  23006.50793669  .00000146  00000-0  27320-4 0  9992,2 51793  53.2168 148.4120 0003482  43.1204 317.0060 15.08841888 49127,6917.875,95.437,542.148,537.331,0.0
51793.0,STARLINK-3633,PAYLOAD,2023-01-06 18:32:58,15.08842201,0.0003568,53.2168,147.2231,43.3271,316.8001,3.2531e-05,2.29e-06,0.0,0 STARLINK-3633,1 51793U 22017AB  23006.77289641  .00000229  00000-0  32531-4 0  9993,2 51793  53.2168 147.2231 0003568  43.3271 316.8001 15.08842201 49164,6917.874,95.437,542.207,537.27,0.0
51793.0,STARLINK-3633,PAYLOAD,2023-01-07 02:29:53,15.08849904,0.0003308,53.2165,145.7363,46.3494,313.7772,6.631100000000001e-05,7.67e-06,0.0,0 STARLINK-3633,1 51793U 22017AB  23007.10408876  .00000767  00000-0  66311-4 0  9994,2 51793  53.2165 145.7363 0003308  46.3494 313.7772 15.08849904 49216,6917.85,95.437,542.004,537.427,0.0
51793.0,STARLINK-3633,PAYLOAD,2023-01-07 18:23:46,15.08832506,0.0003455,53.2166,142.7609,47.9096,312.219,-6.9085e-05,-1.388e-05,0.0,0 STARLINK-3633,1 51793U 22017AB  23007.76650543 -.00001388  00000-0 -69085-4 0  9999,2 51793  53.2166 142.7609 0003455  47.9096 312.2190 15.08832506 49314,6917.903,95.438,542.158,537.378,0.0
51793.0,STARLINK-3633,PAYLOAD,2023-01-08 02:20:41,15.08837443,0.00032,53.218,141.274,44.3083,315.8165,4.1079e-05,3.65e-06,0.0,0 STARLINK-3633,1 51793U 22017AB  23008.09769863  .00000365  00000-0  41079-4 0  9997,2 51793  53.2180 141.2740 0003200  44.3083 315.8165 15.08837443 49366,6917.888000000001,95.438,541.967,537.539,0.0
51793.0,STARLINK-3633,PAYLOAD,2023-01-08 08:42:13,15.08839969,0.0003315,53.2185,140.0845,43.2962,316.829,2.1717e-05,5.7e-07,0.0,0 STARLINK-3633,1 51793U 22017AB  23008.36265850  .00000057  00000-0  21717-4 0  9999,2 51793  53.2185 140.0845 0003315  43.2962 316.8290 15.08839969 49405,6917.88,95.438,542.039,537.452,0.0
51793.0,STARLINK-3633,PAYLOAD,2023-01-08 15:03:46,15.0883834,0.0003411,53.2186,138.8958,42.8152,317.3105,1.1794e-05,-1.01e-06,0.0,0 STARLINK-3633,1 51793U 22017AB  23008.62762047 -.00000101  00000-0  11794-4 0  9993,2 51793  53.2186 138.8958 0003411  42.8152 317.3105 15.08838340 49446,6917.885,95.438,542.11,537.391,0.0
51793.0,STARLINK-3633,PAYLOAD,2023-01-10 08:23:47,15.08843422,0.0003398,53.2185,131.1669,45.955,314.1721,5.1493e-05,5.31e-06,0.0,0 STARLINK-3633,1 51793U 22017AB  23010.34985651  .00000531  00000-0  51493-4 0  9999,2 51793  53.2185 131.1669 0003398  45.9550 314.1721 15.08843422 49705,6917.87,95.437,542.086,537.384,0.0
51793.0,STARLINK-3633,PAYLOAD,2023-01-10 14:45:21,15.08828817,0.0003092,53.217,129.9777,36.2837,323.8364,-1.6335999999999994e-05,-5.49e-06,0.0,0 STARLINK-3633,1 51793U 22017AB  23010.61482818 -.00000549  00000-0 -16336-4 0  9994,2 51793  53.2170 129.9777 0003092  36.2837 323.8364 15.08828817 49741,6917.915,95.438,541.919,537.641,0.0
51793.0,STARLINK-3633,PAYLOAD,2023-01-10 16:20:44,15.08830787,0.0003178,53.2174,129.6788,38.9549,321.1672,-1.4235e-05,-5.15e-06,0.0,0 STARLINK-3633,1 51793U 22017AB  23010.68106520 -.00000515  00000-0 -14235-4 0  9993,2 51793  53.2174 129.6788 0003178  38.9549 321.1672 15.08830787 49751,6917.9090000000015,95.438,541.972,537.575,0.0
51793.0,STARLINK-3633,PAYLOAD,2023-01-11 14:36:06,15.08839955,0.0003112,53.2174,125.5157,33.0587,327.0599,0.00019526,2.82e-05,0.0,0 STARLINK-3633,1 51793U 22017AB  23011.60841190  .00002820  00000-0  19526-3 0  9991,2 51793  53.2174 125.5157 0003112  33.0587 327.0599 15.08839955 49896,6917.880999999999,95.438,541.898,537.5930000000002,0.0
51793.0,STARLINK-3633,PAYLOAD,2023-01-12 16:02:18,15.08826379,0.0003165,53.2178,120.7589,36.6489,323.4719,3.6951e-05,2.99e-06,0.0,0 STARLINK-3633,1 51793U 22017AB  23012.66826934  .00000299  00000-0  36951-4 0  9997,2 51793  53.2178 120.7589 0003165  36.6489 323.4719 15.08826379 50054,6917.922,95.438,541.977,537.5980000000002,0.0
51793.0,STARLINK-3633,PAYLOAD,2023-01-12 23:59:14,15.08821892,0.000315,53.2165,119.272,39.4557,320.6664,-7.305e-05,-1.451e-05,0.0,0 STARLINK-3633,1 51793U 22017AB  23012.99947828 -.00001451  00000-0 -73050-4 0  9993,2 51793  53.2165 119.2720 0003150  39.4557 320.6664 15.08821892 50100,6917.936,95.439,541.98,537.622,0.0
51793.0,STARLINK-3633,PAYLOAD,2023-01-13 12:42:19,15.08828267,0.0003085,53.2164,116.8926,37.0056,323.1149,-0.00010609,-1.976e-05,0.0,0 STARLINK-3633,1 51793U 22017AB  23013.52939782 -.00001976  00000-0 -10609-3 0  9995,2 51793  53.2164 116.8926 0003085  37.0056 323.1149 15.08828267 50182,6917.916,95.438,541.915,537.6469999999999,0.0
51793.0,STARLINK-3633,PAYLOAD,2023-01-13 15:53:05,15.08840132,0.0002821,53.2172,116.298,38.0727,322.0464,-3.605e-06,-3.46e-06,0.0,0 STARLINK-3633,1 51793U 22017AB  23013.66186758 -.00000346  00000-0 -36050-5 0  9997,2 51793  53.2172 116.2980 0002821  38.0727 322.0464 15.08840132 50204,6917.88,95.438,541.697,537.793,0.0
51793.0,STARLINK-3633,PAYLOAD,2023-01-13 23:50:01,15.0882997,0.0003093,53.2176,114.8106,41.5815,318.5412,-6.5452e-05,-1.33e-05,0.0,0 STARLINK-3633,1 51793U 22017AB  23013.99307822 -.00001330  00000-0 -65452-4 0  9991,2 51793  53.2176 114.8106 0003093  41.5815 318.5412 15.08829970 50256,6917.911,95.438,541.9159999999999,537.636,0.0
51793.0,STARLINK-3633,PAYLOAD,2023-01-14 14:08:27,15.08862593,0.0002928999999999,53.2165,112.1341,46.2869,313.8365,0.0004476,6.847e-05,0.0,0 STARLINK-3633,1 51793U 22017AB  23014.58920409  .00006847  00000-0  44760-3 0  9993,2 51793  53.2165 112.1341 0002929  46.2869 313.8365 15.08862593 50347,6917.811,95.436,541.703,537.65,0.0
51793.0,STARLINK-3633,PAYLOAD,2023-01-15 06:02:20,15.08841277,0.0003021,53.2148,109.1614,49.1225,311.0029,0.00024501,3.613e-05,0.0,0 STARLINK-3633,1 51793U 22017AB  23015.25162273  .00003613  00000-0  24501-3 0  9994,2 51793  53.2148 109.1614 0003021  49.1225 311.0029 15.08841277 50443,6917.876,95.437,541.831,537.6519999999999,0.0
51793.0,STARLINK-3633,PAYLOAD,2023-01-15 12:23:55,15.08809949,0.0002075,53.2173,107.9725,31.9024,328.2094,-5.8124e-05,-1.212e-05,0.0,0 STARLINK-3633,1 51793U 22017AB  23015.51661272 -.00001212  00000-0 -58124-4 0  9990,2 51793  53.2173 107.9725 0002075  31.9024 328.2094 15.08809949 50480,6917.972,95.439,541.273,538.4019999999999,0.0
51793.0,STARLINK-3633,PAYLOAD,2023-01-15 15:34:40,15.08825908,0.0002261,53.217,107.3746,48.6049,311.5137,-9.0896e-05,-1.734e-05,0.0,0 STARLINK-3633,1 51793U 22017AB  23015.64908508 -.00001734  00000-0 -90896-4 0  9991,2 51793  53.2170 107.3746 0002261  48.6049 311.5137 15.08825908 50502,6917.923000000001,95.438,541.3530000000001,538.224,0.0
51793.0,STARLINK-3633,PAYLOAD,2023-01-16 12:14:40,15.08840525,0.0002171999999999,53.2175,103.5098,61.0316,299.0894,8.741200000000001e-05,1.103e-05,0.0,0 STARLINK-3633,1 51793U 22017AB  23016.51019606  .00001103  00000-0  87412-4 0  9998,2 51793  53.2175 103.5098 0002172  61.0316 299.0894 15.08840525 50638,6917.879,95.438,541.246,538.241,0.0
51793.0,STARLINK-3633,PAYLOAD,2023-01-16 13:50:03,15.08867713,0.0002283,53.2163,103.2136,57.7667,302.3547,-0.00011791,-2.166e-05,0.0,0 STARLINK-3633,1 51793U 22017AB  23016.57642582 -.00002166  00000-0 -11791-3 0  9997,2 51793  53.2163 103.2136 0002283  57.7667 302.3547 15.08867713 50641,6917.795999999999,95.436,541.24,538.081,0.0
51793.0,STARLINK-3633,PAYLOAD,2023-01-17 05:43:56,15.08814501,0.0001639,53.2192,100.2396,67.0578,293.0587,8.6553e-05,1.089e-05,0.0,0 STARLINK-3633,1 51793U 22017AB  23017.23885169  .00001089  00000-0  86553-4 0  9991,2 51793  53.2192 100.2396 0001639  67.0578 293.0587 15.08814501 50745,6917.9580000000005,95.439,540.957,538.689,0.0
51793.0,STARLINK-3633,PAYLOAD,2023-01-17 13:40:52,15.08824498,0.0001893,53.2172,98.7526,67.9909,292.1284,0.00017327,2.469e-05,0.0,0 STARLINK-3633,1 51793U 22017AB  23017.57004793  .00002469  00000-0  17327-3 0  9999,2 51793  53.2172  98.7526 0001893  67.9909 292.1284 15.08824498 50793,6917.928000000001,95.439,541.102,538.4830000000001,0.0
51793.0,STARLINK-3633,PAYLOAD,2023-01-18 08:45:29,15.08844557,0.0001872,53.2183,95.1865,80.2174,279.9029,0.00013504,1.862e-05,0.0,0 STARLINK-3633,1 51793U 22017AB  23018.36492320  .00001862  00000-0  13504-3 0  9993,2 51793  53.2183  95.1865 0001872  80.2174 279.9029 15.08844557 50913,6917.866,95.437,541.026,538.436,0.0
51793.0,STARLINK-3633,PAYLOAD,2023-01-18 11:56:15,15.08847043,0.000176,53.2159,94.5935,66.3299,293.7878,0.00020373,2.956e-05,0.0,0 STARLINK-3633,1 51793U 22017AB  23018.49739978  .00002956  00000-0  20373-3 0  9997,2 51793  53.2159  94.5935 0001760  66.3299 293.7878 15.08847043 50937,6917.859,95.437,540.941,538.506,0.0
51793.0,STARLINK-3633,PAYLOAD,2023-01-18 13:31:37,15.08860843,0.0001789,53.216,94.2928,68.6108,291.5075,0.00014365,2e-05,0.0,0 STARLINK-3633,1 51793U 22017AB  23018.56363092  .00002000  00000-0  14365-3 0  9999,2 51793  53.2160  94.2928 0001789  68.6108 291.5075 15.08860843 50942,6917.816999999999,95.436,540.919,538.444,0.0
51793.0,STARLINK-3633,PAYLOAD,2023-01-18 21:28:34,15.08845874,0.0002058,53.2163,92.8056,72.4068,287.7149,4.1323e-06,-2.22e-06,0.0,0 STARLINK-3633,1 51793U 22017AB  23018.89484400 -.00000222  00000-0  41323-5 0  9993,2 51793  53.2163  92.8056 0002058  72.4068 287.7149 15.08845874 50990,6917.861999999999,95.437,541.151,538.304,0.0
